{
  "norad_id": 61849,
  "name": "STARLINK-32346",
  "history": [
    {
      "epoch": "2026-03-28T18:31:02.107488Z",
      "apogee_km": 483.7624368819488,
      "perigee_km": 482.4400018275501,
      "latitude_deg": 6.37434205138372e-05,
      "longitude_deg": 15.229874378202178,
      "height_km": 482.793225376533,
      "semi_major_axis_km": 6861.238219354749,
      "eccentricity": 9.637e-05,
      "inclination_deg": 43.0016,
      "raan_deg": 119.1758,
      "arg_perigee_deg": 277.3421,
      "mean_anomaly_deg": 82.7322,
      "mean_motion_rev_day": 15.27562593
    },
    {
      "epoch": "2026-03-30T01:54:10.427040Z",
      "apogee_km": 484.0467864918901,
      "perigee_km": 482.50022456394345,
      "latitude_deg": -2.9500712870150048e-05,
      "longitude_deg": -104.22935195931593,
      "height_km": 483.06548985198725,
      "semi_major_axis_km": 6861.410505527916,
      "eccentricity": 0.0001127,
      "inclination_deg": 42.9986,
      "raan_deg": 111.7903,
      "arg_perigee_deg": 268.8395,
      "mean_anomaly_deg": 91.2327,
      "mean_motion_rev_day": 15.27505059
    },
    {
      "epoch": "2026-03-30T01:54:10.427904Z",
      "apogee_km": 484.0464434213636,
      "perigee_km": 482.5005676344681,
      "latitude_deg": -3.343068256771761e-05,
      "longitude_deg": -104.22935976046794,
      "height_km": 483.06548290471824,
      "semi_major_axis_km": 6861.410505527916,
      "eccentricity": 0.00011265,
      "inclination_deg": 42.9986,
      "raan_deg": 111.7903,
      "arg_perigee_deg": 268.8395,
      "mean_anomaly_deg": 91.2327,
      "mean_motion_rev_day": 15.27505059
    },
    {
      "epoch": "2026-03-30T11:19:05.128032Z",
      "apogee_km": 483.8575879326736,
      "perigee_km": 482.2419156763581,
      "latitude_deg": 3.770428301236621e-05,
      "longitude_deg": 111.94193105858494,
      "height_km": 482.73873942355993,
      "semi_major_axis_km": 6861.186751804516,
      "eccentricity": 0.00011774,
      "inclination_deg": 42.9999,
      "raan_deg": 109.5761,
      "arg_perigee_deg": 276.2194,
      "mean_anomaly_deg": 83.8524,
      "mean_motion_rev_day": 15.27579781
    },
    {
      "epoch": "2026-03-31T17:08:03.750720Z",
      "apogee_km": 483.7924815557244,
      "perigee_km": 482.32418575432166,
      "latitude_deg": -2.009912735930885e-05,
      "longitude_deg": 16.45569855168495,
      "height_km": 482.885588273953,
      "semi_major_axis_km": 6861.195333655022,
      "eccentricity": 0.000107,
      "inclination_deg": 43.0005,
      "raan_deg": 102.5587,
      "arg_perigee_deg": 266.0334,
      "mean_anomaly_deg": 94.0395,
      "mean_motion_rev_day": 15.27576915
    },
    {
      "epoch": "2026-04-01T10:23:47.234112Z",
      "apogee_km": 483.8893299406245,
      "perigee_km": 482.23715292248835,
      "latitude_deg": -5.1824097769967067e-05,
      "longitude_deg": 112.75375647430492,
      "height_km": 482.87186341968516,
      "semi_major_axis_km": 6861.200241431557,
      "eccentricity": 0.0001204,
      "inclination_deg": 43.0013,
      "raan_deg": 98.4969,
      "arg_perigee_deg": 267.7842,
      "mean_anomaly_deg": 92.2871,
      "mean_motion_rev_day": 15.27575276
    },
    {
      "epoch": "2026-04-02T11:30:19.310688Z",
      "apogee_km": 483.9183286586249,
      "perigee_km": 482.30483744183584,
      "latitude_deg": 1.5435337918450333e-05,
      "longitude_deg": 89.18539053257487,
      "height_km": 482.7224806066107,
      "semi_major_axis_km": 6861.24858305023,
      "eccentricity": 0.00011758,
      "inclination_deg": 43.0044,
      "raan_deg": 92.5933,
      "arg_perigee_deg": 281.8821,
      "mean_anomaly_deg": 78.1899,
      "mean_motion_rev_day": 15.27559132
    },
    {
      "epoch": "2026-04-03T06:20:10.152096Z",
      "apogee_km": 484.7484193190985,
      "perigee_km": 481.33704075732385,
      "latitude_deg": 2.822782797641034e-06,
      "longitude_deg": 161.52058519175017,
      "height_km": 482.4963129272615,
      "semi_major_axis_km": 6861.179730038211,
      "eccentricity": 0.0002486,
      "inclination_deg": 43.0057,
      "raan_deg": 88.1637,
      "arg_perigee_deg": 280.9701,
      "mean_anomaly_deg": 79.0871,
      "mean_motion_rev_day": 15.27582126
    }
  ]
}